{
  "type": "FeatureCollection",
  "features": [
    {
      "type": "Feature",
      "properties": {
        "norad_id": 66914,
        "name": "2025-284B",
        "group": "last-30-days",
        "lat": 73.37445676742789,
        "lon": -80.4146738586037,
        "alt_km": 504.8585727958198,
        "timestamp": "2025-12-09T07:41:31.974107+00:00",
        "meta_object_name": "2025-284B",
        "meta_object_id": "2025-284B",
        "meta_epoch": "2025-12-07T23:38:29.179680",
        "meta_mean_motion": 15.20093076,
        "meta_eccentricity": 0.00128589,
        "meta_inclination": 80.4047,
        "meta_ra_of_asc_node": 135.7909,
        "meta_arg_of_pericenter": 245.1407,
        "meta_mean_anomaly": 114.8485,
        "meta_ephemeris_type": 0,
        "meta_classification_type": "U",
        "meta_norad_cat_id": 66914,
        "meta_element_set_no": 999,
        "meta_rev_at_epoch": 40,
        "meta_bstar": 0.00060156278,
        "meta_mean_motion_dot": 0.00013048,
        "meta_mean_motion_ddot": 0,
        "tle_line1": "1 66914U 25284B   25341.98505995  .00013048  00000+0  60156-3 0  9998",
        "tle_line2": "2 66914  80.4047 135.7909 0012858 245.1407 114.8485 15.20093076   400"
      },
      "geometry": {
        "type": "Point",
        "coordinates": [
          -80.4146738586037,
          73.37445676742789
        ]
      }
    },
    {
      "type": "Feature",
      "properties": {
        "norad_id": 66915,
        "name": "HULIANWANG DIGUI 14A",
        "group": "last-30-days",
        "lat": 15.01698848371649,
        "lon": -61.78824836192699,
        "alt_km": 875.4126760138552,
        "timestamp": "2025-12-09T07:41:31.974124+00:00",
        "meta_object_name": "HULIANWANG DIGUI 14A",
        "meta_object_id": "2025-285A",
        "meta_epoch": "2025-12-08T22:24:01.034784",
        "meta_mean_motion": 14.05465769,
        "meta_eccentricity": 0.00080883,
        "meta_inclination": 50.0032,
        "meta_ra_of_asc_node": 132.8092,
        "meta_arg_of_pericenter": 269.8448,
        "meta_mean_anomaly": 90.153,
        "meta_ephemeris_type": 0,
        "meta_classification_type": "U",
        "meta_norad_cat_id": 66915,
        "meta_element_set_no": 999,
        "meta_rev_at_epoch": 37,
        "meta_bstar": 9.612313e-06,
        "meta_mean_motion_dot": -1.36e-06,
        "meta_mean_motion_ddot": 0,
        "tle_line1": "1 66915U 25285A   25342.93334531 -.00000136  00000+0  96123-5 0  9992",
        "tle_line2": "2 66915  50.0032 132.8092 0008088 269.8448  90.1530 14.05465769   374"
      },
      "geometry": {
        "type": "Point",
        "coordinates": [
          -61.78824836192699,
          15.01698848371649
        ]
      }
    },
    {
      "type": "Feature",
      "properties": {
        "norad_id": 66916,
        "name": "HULIANWANG DIGUI 14B",
        "group": "last-30-days",
        "lat": 14.607068241576044,
        "lon": -61.409973174976145,
        "alt_km": 874.5319013759627,
        "timestamp": "2025-12-09T07:41:31.974136+00:00",
        "meta_object_name": "HULIANWANG DIGUI 14B",
        "meta_object_id": "2025-285B",
        "meta_epoch": "2025-12-08T22:23:53.169792",
        "meta_mean_motion": 14.05512232,
        "meta_eccentricity": 0.0006943,
        "meta_inclination": 50.0043,
        "meta_ra_of_asc_node": 132.8098,
        "meta_arg_of_pericenter": 264.5664,
        "meta_mean_anomaly": 95.4449,
        "meta_ephemeris_type": 0,
        "meta_classification_type": "U",
        "meta_norad_cat_id": 66916,
        "meta_element_set_no": 999,
        "meta_rev_at_epoch": 37,
        "meta_bstar": 1.4775005e-05,
        "meta_mean_motion_dot": -1.28e-06,
        "meta_mean_motion_ddot": 0,
        "tle_line1": "1 66916U 25285B   25342.93325428 -.00000128  00000+0  14775-4 0  9991",
        "tle_line2": "2 66916  50.0043 132.8098 0006943 264.5664  95.4449 14.05512232   378"
      },
      "geometry": {
        "type": "Point",
        "coordinates": [
          -61.409973174976145,
          14.607068241576044
        ]
      }
    },
    {
      "type": "Feature",
      "properties": {
        "norad_id": 66917,
        "name": "HULIANWANG DIGUI 14C",
        "group": "last-30-days",
        "lat": 14.028324876470888,
        "lon": -60.886282550691746,
        "alt_km": 875.1378220028146,
        "timestamp": "2025-12-09T07:41:31.974147+00:00",
        "meta_object_name": "HULIANWANG DIGUI 14C",
        "meta_object_id": "2025-285C",
        "meta_epoch": "2025-12-08T22:23:41.400384",
        "meta_mean_motion": 14.05578265,
        "meta_eccentricity": 0.00075291,
        "meta_inclination": 50.0009,
        "meta_ra_of_asc_node": 132.806,
        "meta_arg_of_pericenter": 272.3708,
        "meta_mean_anomaly": 87.6335,
        "meta_ephemeris_type": 0,
        "meta_classification_type": "U",
        "meta_norad_cat_id": 66917,
        "meta_element_set_no": 999,
        "meta_rev_at_epoch": 37,
        "meta_bstar": -5.40171e-06,
        "meta_mean_motion_dot": -1.61e-06,
        "meta_mean_motion_ddot": 0,
        "tle_line1": "1 66917U 25285C   25342.93311806 -.00000161  00000+0 -54017-5 0  9999",
        "tle_line2": "2 66917  50.0009 132.8060 0007529 272.3708  87.6335 14.05578265   372"
      },
      "geometry": {
        "type": "Point",
        "coordinates": [
          -60.886282550691746,
          14.028324876470888
        ]
      }
    },
    {
      "type": "Feature",
      "properties": {
        "norad_id": 66918,
        "name": "HULIANWANG DIGUI 14D",
        "group": "last-30-days",
        "lat": 13.057978651089638,
        "lon": -60.00510390372658,
        "alt_km": 874.0879368848973,
        "timestamp": "2025-12-09T07:41:31.974157+00:00",
        "meta_object_name": "HULIANWANG DIGUI 14D",
        "meta_object_id": "2025-285D",
        "meta_epoch": "2025-12-08T22:23:22.657632",
        "meta_mean_motion": 14.05702846,
        "meta_eccentricity": 0.00064374,
        "meta_inclination": 50.0041,
        "meta_ra_of_asc_node": 132.8068,
        "meta_arg_of_pericenter": 267.5625,
        "meta_mean_anomaly": 92.4544,
        "meta_ephemeris_type": 0,
        "meta_classification_type": "U",
        "meta_norad_cat_id": 66918,
        "meta_element_set_no": 999,
        "meta_rev_at_epoch": 37,
        "meta_bstar": 1.4530482e-05,
        "meta_mean_motion_dot": -1.28e-06,
        "meta_mean_motion_ddot": 0,
        "tle_line1": "1 66918U 25285D   25342.93290113 -.00000128  00000+0  14530-4 0  9994",
        "tle_line2": "2 66918  50.0041 132.8068 0006437 267.5625  92.4544 14.05702846   378"
      },
      "geometry": {
        "type": "Point",
        "coordinates": [
          -60.00510390372658,
          13.057978651089638
        ]
      }
    },
    {
      "type": "Feature",
      "properties": {
        "norad_id": 66919,
        "name": "HULIANWANG DIGUI 14E",
        "group": "last-30-days",
        "lat": 12.907920795348113,
        "lon": -59.86727065631925,
        "alt_km": 875.3770838213823,
        "timestamp": "2025-12-09T07:41:31.974167+00:00",
        "meta_object_name": "HULIANWANG DIGUI 14E",
        "meta_object_id": "2025-285E",
        "meta_epoch": "2025-12-08T22:23:19.095360",
        "meta_mean_motion": 14.05713914,
        "meta_eccentricity": 0.00078408,
        "meta_inclination": 50.0055,
        "meta_ra_of_asc_node": 132.809,
        "meta_arg_of_pericenter": 278.8705,
        "meta_mean_anomaly": 81.1313,
        "meta_ephemeris_type": 0,
        "meta_classification_type": "U",
        "meta_norad_cat_id": 66919,
        "meta_element_set_no": 999,
        "meta_rev_at_epoch": 37,
        "meta_bstar": -9.388936e-06,
        "meta_mean_motion_dot": -1.68e-06,
        "meta_mean_motion_ddot": 0,
        "tle_line1": "1 66919U 25285E   25342.93285990 -.00000168  00000+0 -93889-5 0  9992",
        "tle_line2": "2 66919  50.0055 132.8090 0007840 278.8705  81.1313 14.05713914   379"
      },
      "geometry": {
        "type": "Point",
        "coordinates": [
          -59.86727065631925,
          12.907920795348113
        ]
      }
    },
    {
      "type": "Feature",
      "properties": {
        "norad_id": 66920,
        "name": "HULIANWANG DIGUI 14F",
        "group": "last-30-days",
        "lat": 11.858213701734453,
        "lon": -58.92564723329121,
        "alt_km": 874.1035816830799,
        "timestamp": "2025-12-09T07:41:31.974177+00:00",
        "meta_object_name": "HULIANWANG DIGUI 14F",
        "meta_object_id": "2025-285F",
        "meta_epoch": "2025-12-08T22:22:59.211264",
        "meta_mean_motion": 14.05849445,
        "meta_eccentricity": 0.0005868,
        "meta_inclination": 50.0088,
        "meta_ra_of_asc_node": 132.8108,
        "meta_arg_of_pericenter": 275.6401,
        "meta_mean_anomaly": 84.3836,
        "meta_ephemeris_type": 0,
        "meta_classification_type": "U",
        "meta_norad_cat_id": 66920,
        "meta_element_set_no": 999,
        "meta_rev_at_epoch": 37,
        "meta_bstar": 0.00011320836,
        "meta_mean_motion_dot": 3.4e-07,
        "meta_mean_motion_ddot": 0,
        "tle_line1": "1 66920U 25285F   25342.93262976  .00000034  00000+0  11321-3 0  9992",
        "tle_line2": "2 66920  50.0088 132.8108 0005868 275.6401  84.3836 14.05849445   377"
      },
      "geometry": {
        "type": "Point",
        "coordinates": [
          -58.92564723329121,
          11.858213701734453
        ]
      }
    }
  ]
}